{
  "type": "FeatureCollection",
  "features": [
    {
      "type": "Feature",
      "properties": {
        "norad_id": 66877,
        "name": "ZQ-3 R/B",
        "group": "last-30-days",
        "lat": 50.89806352072267,
        "lon": 66.08656396067121,
        "alt_km": 1084.7974891301828,
        "timestamp": "2025-12-24T05:51:18.326863+00:00",
        "meta_object_name": "ZQ-3 R/B",
        "meta_object_id": "2025-282A",
        "meta_epoch": "2025-12-23T18:11:12.742368",
        "meta_mean_motion": 14.82080967,
        "meta_eccentricity": 0.06855559,
        "meta_inclination": 56.9493,
        "meta_ra_of_asc_node": 14.7741,
        "meta_arg_of_pericenter": 239.3958,
        "meta_mean_anomaly": 113.7744,
        "meta_ephemeris_type": 0,
        "meta_classification_type": "U",
        "meta_norad_cat_id": 66877,
        "meta_element_set_no": 999,
        "meta_rev_at_epoch": 301,
        "meta_bstar": 0.00018878602,
        "meta_mean_motion_dot": 0.01092378,
        "meta_mean_motion_ddot": 7.875389e-06,
        "tle_line1": "1 66877U 25282A   25357.75778637  .01092378  78754-5  18879-3 0  9997",
        "tle_line2": "2 66877  56.9493  14.7741 0685555 239.3958 113.7744 14.82080967  3015"
      },
      "geometry": {
        "type": "Point",
        "coordinates": [
          66.08656396067121,
          50.89806352072267
        ]
      }
    },
    {
      "type": "Feature",
      "properties": {
        "norad_id": 66878,
        "name": "STARLINK-35866",
        "group": "last-30-days",
        "lat": 12.964645568468535,
        "lon": -173.55949597847362,
        "alt_km": 368.6682139956956,
        "timestamp": "2025-12-24T05:51:18.326873+00:00",
        "meta_object_name": "STARLINK-35866",
        "meta_object_id": "2025-283A",
        "meta_epoch": "2025-12-23T22:00:01.999584",
        "meta_mean_motion": 15.67563403,
        "meta_eccentricity": 0.00013661,
        "meta_inclination": 53.1589,
        "meta_ra_of_asc_node": 17.987,
        "meta_arg_of_pericenter": 78.9659,
        "meta_mean_anomaly": 37.5178,
        "meta_ephemeris_type": 0,
        "meta_classification_type": "U",
        "meta_norad_cat_id": 66878,
        "meta_element_set_no": 999,
        "meta_rev_at_epoch": 422,
        "meta_bstar": -0.019485011,
        "meta_mean_motion_dot": -0.01915301,
        "meta_mean_motion_ddot": 0,
        "tle_line1": "1 66878U 25283A   25357.91668981 -.01915301  00000+0 -19485-1 0  9994",
        "tle_line2": "2 66878  53.1589  17.9870 0001366  78.9659  37.5178 15.67563403  4229"
      },
      "geometry": {
        "type": "Point",
        "coordinates": [
          -173.55949597847362,
          12.964645568468535
        ]
      }
    },
    {
      "type": "Feature",
      "properties": {
        "norad_id": 66879,
        "name": "STARLINK-35749",
        "group": "last-30-days",
        "lat": 9.931260525311819,
        "lon": -171.17142966597498,
        "alt_km": 369.1513286749614,
        "timestamp": "2025-12-24T05:51:18.326883+00:00",
        "meta_object_name": "STARLINK-35749",
        "meta_object_id": "2025-283B",
        "meta_epoch": "2025-12-23T22:00:01.999584",
        "meta_mean_motion": 15.67565844,
        "meta_eccentricity": 0.00013392,
        "meta_inclination": 53.1588,
        "meta_ra_of_asc_node": 17.9789,
        "meta_arg_of_pericenter": 81.6555,
        "meta_mean_anomaly": 38.6608,
        "meta_ephemeris_type": 0,
        "meta_classification_type": "U",
        "meta_norad_cat_id": 66879,
        "meta_element_set_no": 999,
        "meta_rev_at_epoch": 422,
        "meta_bstar": -0.019517144,
        "meta_mean_motion_dot": -0.01918248,
        "meta_mean_motion_ddot": 0,
        "tle_line1": "1 66879U 25283B   25357.91668981 -.01918248  00000+0 -19517-1 0  9994",
        "tle_line2": "2 66879  53.1588  17.9789 0001339  81.6555  38.6608 15.67565844  4225"
      },
      "geometry": {
        "type": "Point",
        "coordinates": [
          -171.17142966597498,
          9.931260525311819
        ]
      }
    },
    {
      "type": "Feature",
      "properties": {
        "norad_id": 66880,
        "name": "STARLINK-35844",
        "group": "last-30-days",
        "lat": 11.450434312533332,
        "lon": -172.3587405660437,
        "alt_km": 368.8521671047274,
        "timestamp": "2025-12-24T05:51:18.326899+00:00",
        "meta_object_name": "STARLINK-35844",
        "meta_object_id": "2025-283C",
        "meta_epoch": "2025-12-23T22:00:01.999584",
        "meta_mean_motion": 15.67562614,
        "meta_eccentricity": 0.00013598,
        "meta_inclination": 53.1588,
        "meta_ra_of_asc_node": 17.9833,
        "meta_arg_of_pericenter": 84.6081,
        "meta_mean_anomaly": 33.793,
        "meta_ephemeris_type": 0,
        "meta_classification_type": "U",
        "meta_norad_cat_id": 66880,
        "meta_element_set_no": 999,
        "meta_rev_at_epoch": 422,
        "meta_bstar": -0.019473272,
        "meta_mean_motion_dot": -0.0191422,
        "meta_mean_motion_ddot": 0,
        "tle_line1": "1 66880U 25283C   25357.91668981 -.01914220  00000+0 -19473-1 0  9993",
        "tle_line2": "2 66880  53.1588  17.9833 0001359  84.6081  33.7930 15.67562614  4222"
      },
      "geometry": {
        "type": "Point",
        "coordinates": [
          -172.3587405660437,
          11.450434312533332
        ]
      }
    },
    {
      "type": "Feature",
      "properties": {
        "norad_id": 66881,
        "name": "STARLINK-35860",
        "group": "last-30-days",
        "lat": 8.40695645252469,
        "lon": -169.994500326556,
        "alt_km": 369.3916077148442,
        "timestamp": "2025-12-24T05:51:18.326910+00:00",
        "meta_object_name": "STARLINK-35860",
        "meta_object_id": "2025-283D",
        "meta_epoch": "2025-12-23T22:00:01.999584",
        "meta_mean_motion": 15.67561751,
        "meta_eccentricity": 0.00014292,
        "meta_inclination": 53.1588,
        "meta_ra_of_asc_node": 17.9744,
        "meta_arg_of_pericenter": 82.763,
        "meta_mean_anomaly": 39.4738,
        "meta_ephemeris_type": 0,
        "meta_classification_type": "U",
        "meta_norad_cat_id": 66881,
        "meta_element_set_no": 999,
        "meta_rev_at_epoch": 422,
        "meta_bstar": -0.01948219,
        "meta_mean_motion_dot": -0.01914986,
        "meta_mean_motion_ddot": 0,
        "tle_line1": "1 66881U 25283D   25357.91668981 -.01914986  00000+0 -19482-1 0  9993",
        "tle_line2": "2 66881  53.1588  17.9744 0001429  82.7630  39.4738 15.67561751  4221"
      },
      "geometry": {
        "type": "Point",
        "coordinates": [
          -169.994500326556,
          8.40695645252469
        ]
      }
    },
    {
      "type": "Feature",
      "properties": {
        "norad_id": 66882,
        "name": "STARLINK-35912",
        "group": "last-30-days",
        "lat": 6.882148830380247,
        "lon": -168.82781036425362,
        "alt_km": 369.65236273773735,
        "timestamp": "2025-12-24T05:51:18.326922+00:00",
        "meta_object_name": "STARLINK-35912",
        "meta_object_id": "2025-283E",
        "meta_epoch": "2025-12-23T22:00:01.999584",
        "meta_mean_motion": 15.67563918,
        "meta_eccentricity": 0.00012342,
        "meta_inclination": 53.1589,
        "meta_ra_of_asc_node": 17.9712,
        "meta_arg_of_pericenter": 82.2916,
        "meta_mean_anomaly": 41.8601,
        "meta_ephemeris_type": 0,
        "meta_classification_type": "U",
        "meta_norad_cat_id": 66882,
        "meta_element_set_no": 999,
        "meta_rev_at_epoch": 422,
        "meta_bstar": -0.019491717,
        "meta_mean_motion_dot": -0.01915825,
        "meta_mean_motion_ddot": 0,
        "tle_line1": "1 66882U 25283E   25357.91668981 -.01915825  00000+0 -19492-1 0  9998",
        "tle_line2": "2 66882  53.1589  17.9712 0001234  82.2916  41.8601 15.67563918  4227"
      },
      "geometry": {
        "type": "Point",
        "coordinates": [
          -168.82781036425362,
          6.882148830380247
        ]
      }
    },
    {
      "type": "Feature",
      "properties": {
        "norad_id": 66883,
        "name": "STARLINK-35947",
        "group": "last-30-days",
        "lat": 5.353034889360613,
        "lon": -167.66791816224628,
        "alt_km": 369.8966461345153,
        "timestamp": "2025-12-24T05:51:18.326934+00:00",
        "meta_object_name": "STARLINK-35947",
        "meta_object_id": "2025-283F",
        "meta_epoch": "2025-12-23T22:00:01.999584",
        "meta_mean_motion": 15.67563919,
        "meta_eccentricity": 0.00012109,
        "meta_inclination": 53.1589,
        "meta_ra_of_asc_node": 17.9676,
        "meta_arg_of_pericenter": 82.4756,
        "meta_mean_anomaly": 43.5931,
        "meta_ephemeris_type": 0,
        "meta_classification_type": "U",
        "meta_norad_cat_id": 66883,
        "meta_element_set_no": 999,
        "meta_rev_at_epoch": 427,
        "meta_bstar": -0.019494238,
        "meta_mean_motion_dot": -0.01916028,
        "meta_mean_motion_ddot": 0,
        "tle_line1": "1 66883U 25283F   25357.91668981 -.01916028  00000+0 -19494-1 0  9997",
        "tle_line2": "2 66883  53.1589  17.9676 0001210  82.4756  43.5931 15.67563919  4276"
      },
      "geometry": {
        "type": "Point",
        "coordinates": [
          -167.66791816224628,
          5.353034889360613
        ]
      }
    }
  ]
}